*******************************************************************************
 Revised: Jun 17, 2016             Umbriel / (Uranus)                       702

 SATELLITE PHYSICAL PROPERTIES:
  Radius (km)           = 584.7  +- 2.8     Density (g cm^-3)   =  1.40 +- 0.16
  Mass (10^20 kg )      =  11.72 +- 1.35    Geometric Albedo    =  0.18 
                                            V(1,0)              = +2.10

 SATELLITE ORBITAL DATA:
  Semi-major axis, a (km) = 266.0 (10^3)    Orbital period      = 4.144 d
  Eccentricity, e         =   0.0050        Rotational period   = Synchronous
  Inclination, i  (deg)   =   0.36
*******************************************************************************
 
 
*******************************************************************************
Ephemeris / WWW_USER Fri Jun 19 18:37:15 2020 Pasadena, USA      / Horizons
*******************************************************************************
Target body name: Umbriel (702)                   {source: ura111}
Center body name: Solar System Barycenter (0)     {source: DE431mx}
Center-site name: BODY CENTER
*******************************************************************************
Start time      : A.D. 1969-Jun-28 00:00:00.0000 TDB
Stop  time      : A.D. 2071-May-04 00:00:00.0000 TDB
Step-size       : 7200 minutes
*******************************************************************************
Center geodetic : 0.00000000,0.00000000,0.0000000 {E-lon(deg),Lat(deg),Alt(km)}
Center cylindric: 0.00000000,0.00000000,0.0000000 {E-lon(deg),Dxy(km),Dz(km)}
Center radii    : (undefined)                                                  
Output units    : AU-D
Output type     : GEOMETRIC cartesian states
Output format   : 2 (position and velocity)
Reference frame : Ecliptic of J2000.0
*******************************************************************************
            JDTDB,            Calendar Date (TDB),        delta-T,                      X,                      Y,                      Z,                     VX,                     VY,                     VZ,
******************************************************************************************************************************************************************************************************************
$$SOE
2450660.500000000, A.D. 1997-Jul-31 00:00:00.0000,      63.183289,  1.185102112559051E+01, -1.588095290548424E+01, -2.107876636782884E-01,  5.750540814626765E-03,  1.587702857582159E-03, -7.241764295862920E-05,
2450665.500000000, A.D. 1997-Aug-05 00:00:00.0000,      63.183165,  1.186824403096066E+01, -1.587063161036006E+01, -2.122534547426173E-01,  3.727130676931587E-03,  1.684825112936380E-03, -2.601769393582198E-03,
2450670.500000000, A.D. 1997-Aug-10 00:00:00.0000,      63.183046,  1.188300066295162E+01, -1.585984859704827E+01, -2.143842351513581E-01,  8.206363762886255E-04,  2.490182739353231E-03, -1.404027827616551E-03,
2450675.500000000, A.D. 1997-Aug-15 00:00:00.0000,      63.182933,  1.189650525659409E+01, -1.584847392390963E+01, -2.143096371214004E-01,  1.255077119201898E-03,  2.842186617663108E-03,  1.817639102569433E-03,
2450680.500000000, A.D. 1997-Aug-20 00:00:00.0000,      63.182825,  1.191180918015209E+01, -1.583722257617196E+01, -2.123607932181594E-01,  4.430718561145511E-03,  2.218436589752305E-03,  2.326474228678576E-03,
2450685.500000000, A.D. 1997-Aug-25 00:00:00.0000,      63.182727,  1.192930683692132E+01, -1.582660881246580E+01, -2.116359749814646E-01,  5.657847591896506E-03,  1.546248289010017E-03, -6.111043459348750E-04,
2450690.500000000, A.D. 1997-Aug-30 00:00:00.0000,      63.182640,  1.194616910522079E+01, -1.581618845384298E+01, -2.134123244605449E-01,  3.187576455548583E-03,  1.803643720234639E-03, -2.689307572635268E-03,
2450695.500000000, A.D. 1997-Sep-04 00:00:00.0000,      63.182563,  1.196049573909251E+01, -1.580522056405462E+01, -2.153416955409076E-01,  5.917648384581360E-04,  2.621204526157407E-03, -9.093959164623705E-04,
2450700.500000000, A.D. 1997-Sep-09 00:00:00.0000,      63.182495,  1.197404575986355E+01, -1.579373403490792E+01, -2.148387006653953E-01,  1.668413714160110E-03,  2.813340846309785E-03,  2.174663537069392E-03,
2450705.500000000, A.D. 1997-Sep-14 00:00:00.0000,      63.182437,  1.198972478528046E+01, -1.578249916861159E+01, -2.128668178998601E-01,  4.854566258540018E-03,  2.095378617549285E-03,  2.017794003743125E-03,
2450710.500000000, A.D. 1997-Sep-19 00:00:00.0000,      63.182389,  1.200728945709183E+01, -1.577189415181583E+01, -2.125519405286685E-01,  5.464047380096117E-03,  1.530364189394547E-03, -1.124652064967406E-03,
2450715.500000000, A.D. 1997-Sep-24 00:00:00.0000,      63.182354,  1.202373804391085E+01, -1.576135462107140E+01, -2.145747475798808E-01,  2.641716963797749E-03,  1.938754737283142E-03, -2.668264824630444E-03,
2450720.500000000, A.D. 1997-Sep-29 00:00:00.0000,      63.182332,  1.203768574801069E+01, -1.575020289092889E+01, -2.162263433125722E-01,  4.720758314447764E-04,  2.733482709108458E-03, -3.765273227243077E-04,
2450725.500000000, A.D. 1997-Oct-04 00:00:00.0000,      63.182323,  1.205136606967971E+01, -1.573862751825456E+01, -2.153241300787559E-01,  2.137808985277209E-03,  2.759109052443285E-03,  2.437364670827434E-03,
2450730.500000000, A.D. 1997-Oct-09 00:00:00.0000,      63.182326,  1.206741102127712E+01, -1.572741953109276E+01, -2.134164332962081E-01,  5.206938390797540E-03,  1.976603031837848E-03,  1.627087159890189E-03,
2450735.500000000, A.D. 1997-Oct-14 00:00:00.0000,      63.182339,  1.208495951289638E+01, -1.571680799998954E+01, -2.135304203830861E-01,  5.169537349297862E-03,  1.542498588675812E-03, -1.594708434067699E-03,
2450740.500000000, A.D. 1997-Oct-19 00:00:00.0000,      63.182364,  1.210095286502325E+01, -1.570612942573297E+01, -2.157190534678139E-01,  2.116169783821730E-03,  2.084873460125478E-03, -2.534640701953168E-03,
2450745.500000000, A.D. 1997-Oct-24 00:00:00.0000,      63.182402,  1.211458567516254E+01, -1.569479985342522E+01, -2.170318619636165E-01,  4.605928600652201E-04,  2.823617547522036E-03,  1.684197241470622E-04,
2450750.500000000, A.D. 1997-Oct-29 00:00:00.0000,      63.182454,  1.212846855379297E+01, -1.568315760509472E+01, -2.157720476255993E-01,  2.648849569667788E-03,  2.681939649673456E-03,  2.600599578587793E-03,
2450755.500000000, A.D. 1997-Nov-03 00:00:00.0000,      63.182517,  1.214485582730368E+01, -1.567198364821442E+01, -2.140151579777959E-01,  5.469773493282290E-03,  1.867319813611161E-03,  1.163419634896069E-03,
2450760.500000000, A.D. 1997-Nov-08 00:00:00.0000,      63.182591,  1.216229705907980E+01, -1.566134638861710E+01, -2.145608089259070E-01,  4.788625820737135E-03,  1.582913455988075E-03, -1.996609458166721E-03,
2450765.500000000, A.D. 1997-Nov-13 00:00:00.0000,      63.182674,  1.217781273708915E+01, -1.565051261726236E+01, -2.168311784625292E-01,  1.629952810173065E-03,  2.236147990143517E-03, -2.300644308427374E-03,
2450770.500000000, A.D. 1997-Nov-18 00:00:00.0000,      63.182766,  1.219120101990115E+01, -1.563901434500260E+01, -2.177569183837018E-01,  5.566290854045172E-04,  2.889671225225491E-03,  7.102651761162677E-04,
2450775.500000000, A.D. 1997-Nov-23 00:00:00.0000,      63.182869,  1.220535307045049E+01, -1.562732842768219E+01, -2.161990848853611E-01,  3.180693426860811E-03,  2.584299001894195E-03,  2.649118776215855E-03,
2450780.500000000, A.D. 1997-Nov-28 00:00:00.0000,      63.182982,  1.222203872259684E+01, -1.561619061430930E+01, -2.146754226175822E-01,  5.629403700203019E-03,  1.774175574024592E-03,  6.532245864774185E-04,
2450785.500000000, A.D. 1997-Dec-03 00:00:00.0000,      63.183103,  1.223928835601340E+01, -1.560550701374540E+01, -2.156346952871081E-01,  4.340902556705244E-03,  1.648889885133675E-03, -2.318933191665819E-03,
2450790.500000000, A.D. 1997-Dec-08 00:00:00.0000,      63.183230,  1.225432034798001E+01, -1.559450560621625E+01, -2.179035053903993E-01,  1.199654543028864E-03,  2.388359070304733E-03, -1.970424004157968E-03,
2450795.500000000, A.D. 1997-Dec-13 00:00:00.0000,      63.183361,  1.226754848776233E+01, -1.558285272628828E+01, -2.184074477363540E-01,  7.626402980420633E-04,  2.927134295841230E-03,  1.220272327019875E-03,
2450800.500000000, A.D. 1997-Dec-18 00:00:00.0000,      63.183497,  1.228202018199789E+01, -1.557114505934577E+01, -2.166274892745750E-01,  3.702154787277127E-03,  2.473215909369304E-03,  2.584267033576259E-03,
2450805.500000000, A.D. 1997-Dec-23 00:00:00.0000,      63.183637,  1.229894832940927E+01, -1.556004068398824E+01, -2.154035493324809E-01,  5.686762119314733E-03,  1.699862183588978E-03,  1.175003577350148E-04,
2450810.500000000, A.D. 1997-Dec-28 00:00:00.0000,      63.183782,  1.231592907061350E+01, -1.554928970777143E+01, -2.167441324194704E-01,  3.837953027274207E-03,  1.739779380937182E-03, -2.547967180090860E-03,
2450815.500000000, A.D. 1998-Jan-02 00:00:00.0000,      63.183929,  1.233048791887393E+01, -1.553811083415524E+01, -2.189206849717472E-01,  8.498202802901110E-04,  2.534329513132923E-03, -1.557051542046316E-03,
2450820.500000000, A.D. 1998-Jan-07 00:00:00.0000,      63.184075,  1.234364547785337E+01, -1.552632149178752E+01, -2.189892762629371E-01,  1.062058609063943E-03,  2.936448244166221E-03,  1.675309710468454E-03,
2450825.500000000, A.D. 1998-Jan-12 00:00:00.0000,      63.184219,  1.235846854340214E+01, -1.551461018746626E+01, -2.170652528027655E-01,  4.198026574899787E-03,  2.353022690252836E-03,  2.413324775226169E-03,
2450830.500000000, A.D. 1998-Jan-17 00:00:00.0000,      63.184361,  1.237557125695270E+01, -1.550353266967577E+01, -2.161985567990730E-01,  5.632948043133127E-03,  1.648613777147148E-03, -4.272275603424927E-04,
2450835.500000000, A.D. 1998-Jan-22 00:00:00.0000,      63.184501,  1.239221045150588E+01, -1.549269175213312E+01, -2.178696796021942E-01,  3.302559244106614E-03,  1.852564261678046E-03, -2.669349382431951E-03,
